{"type": "FeatureCollection", "features": [ {"type": "Feature", "properties": {"norad_id": 30688, "name": "FENGYUN 1C DEB", "group": "fengyun-1c-debris", "lat": 9.230747924565177, "lon": -128.3383288508057, "alt_km": 795.5752295809207, "timestamp": "2025-12-02T21:34:01.549170+00:00", "meta": {"OBJECT_NAME": "FENGYUN 1C DEB", "OBJECT_ID": "1999-025AQW", "EPOCH": "2025-12-02T04:09:06.006816", "MEAN_MOTION": 14.32547801, "ECCENTRICITY": 0.00149904, "INCLINATION": 98.702, "RA_OF_ASC_NODE": 49.5072, "ARG_OF_PERICENTER": 349.4212, "MEAN_ANOMALY": 40.9939, "EPHEMERIS_TYPE": 0, "CLASSIFICATION_TYPE": "U", "NORAD_CAT_ID": 30688, "ELEMENT_SET_NO": 999, "REV_AT_EPOCH": 97109, "BSTAR": 0.0018615755, "MEAN_MOTION_DOT": 5.014e-05, "MEAN_MOTION_DDOT": 0}, "tle": {"line1": "1 30688U 99025AQW 25336.17298619  .00005014  00000+0  18616-2 0  9995", "line2": "2 30688  98.7020  49.5072 0014990 349.4212  40.9939 14.32547801971093"}}, "geometry": {"type": "Point", "coordinates": [-128.3383288508057, 9.230747924565177]}}, {"type": "Feature", "properties": {"norad_id": 30689, "name": "FENGYUN 1C DEB", "group": "fengyun-1c-debris", "lat": -5.354700857253733, "lon": 142.59721055687953, "alt_km": 809.2564323750148, "timestamp": "2025-12-02T21:34:01.549180+00:00", "meta": {"OBJECT_NAME": "FENGYUN 1C DEB", "OBJECT_ID": "1999-025AQX", "EPOCH": "2025-12-02T11:12:15.897024", "MEAN_MOTION": 14.11744608, "ECCENTRICITY": 0.0111475, "INCLINATION": 98.7073, "RA_OF_ASC_NODE": 323.0011, "ARG_OF_PERICENTER": 132.3011, "MEAN_ANOMALY": 18.7746, "EPHEMERIS_TYPE": 0, "CLASSIFICATION_TYPE": "U", "NORAD_CAT_ID": 30689, "ELEMENT_SET_NO": 999, "REV_AT_EPOCH": 96745, "BSTAR": 0.00041222, "MEAN_MOTION_DOT": 7.54e-06, "MEAN_MOTION_DDOT": 0}, "tle": {"line1": "1 30689U 99025AQX 25336.46685066  .00000754  00000+0  41222-3 0  9990", "line2": "2 30689  98.7073 323.0011 0111475 132.3011  18.7746 14.11744608967452"}}, "geometry": {"type": "Point", "coordinates": [142.59721055687953, -5.354700857253733]}}, {"type": "Feature", "properties": {"norad_id": 30690, "name": "FENGYUN 1C DEB", "group": "fengyun-1c-debris", "lat": -26.53771234028331, "lon": 82.62408738409236, "alt_km": 908.9691000712955, "timestamp": "2025-12-02T21:34:01.549190+00:00", "meta": {"OBJECT_NAME": "FENGYUN 1C DEB", "OBJECT_ID": "1999-025AQY", "EPOCH": "2025-12-02T01:49:48.916704", "MEAN_MOTION": 14.02260404, "ECCENTRICITY": 0.01043135, "INCLINATION": 99.1594, "RA_OF_ASC_NODE": 266.4193, "ARG_OF_PERICENTER": 105.2242, "MEAN_ANOMALY": 271.2487, "EPHEMERIS_TYPE": 0, "CLASSIFICATION_TYPE": "U", "NORAD_CAT_ID": 30690, "ELEMENT_SET_NO": 999, "REV_AT_EPOCH": 95558, "BSTAR": 0.0012442751, "MEAN_MOTION_DOT": 1.955e-05, "MEAN_MOTION_DDOT": 0}, "tle": {"line1": "1 30690U 99025AQY 25336.07626061  .00001955  00000+0  12443-2 0  9995", "line2": "2 30690  99.1594 266.4193 0104313 105.2242 271.2487 14.02260404955582"}}, "geometry": {"type": "Point", "coordinates": [82.62408738409236, -26.53771234028331]}}, {"type": "Feature", "properties": {"norad_id": 30691, "name": "FENGYUN 1C DEB", "group": "fengyun-1c-debris", "lat": -59.57950621552907, "lon": 4.097751744573076, "alt_km": 858.4159440461499, "timestamp": "2025-12-02T21:34:01.549201+00:00", "meta": {"OBJECT_NAME": "FENGYUN 1C DEB", "OBJECT_ID": "1999-025AQZ", "EPOCH": "2025-12-02T12:14:22.659936", "MEAN_MOTION": 13.89386426, "ECCENTRICITY": 0.0139139, "INCLINATION": 98.7431, "RA_OF_ASC_NODE": 348.5393, "ARG_OF_PERICENTER": 261.2387, "MEAN_ANOMALY": 254.2199, "EPHEMERIS_TYPE": 0, "CLASSIFICATION_TYPE": "U", "NORAD_CAT_ID": 30691, "ELEMENT_SET_NO": 999, "REV_AT_EPOCH": 94974, "BSTAR": 0.0014194, "MEAN_MOTION_DOT": 1.83e-05, "MEAN_MOTION_DDOT": 0}, "tle": {"line1": "1 30691U 99025AQZ 25336.50998449  .00001830  00000+0  14194-2 0  9993", "line2": "2 30691  98.7431 348.5393 0139139 261.2387 254.2199 13.89386426949748"}}, "geometry": {"type": "Point", "coordinates": [4.097751744573076, -59.57950621552907]}}, {"type": "Feature", "properties": {"norad_id": 30693, "name": "FENGYUN 1C DEB", "group": "fengyun-1c-debris", "lat": -69.16859912565234, "lon": -13.997909584845036, "alt_km": 856.5990850115641, "timestamp": "2025-12-02T21:34:01.549211+00:00", "meta": {"OBJECT_NAME": "FENGYUN 1C DEB", "OBJECT_ID": "1999-025ARB", "EPOCH": "2025-12-01T11:55:14.322720", "MEAN_MOTION": 14.13265176, "ECCENTRICITY": 0.00287571, "INCLINATION": 98.6855, "RA_OF_ASC_NODE": 320.9544, "ARG_OF_PERICENTER": 199.7268, "MEAN_ANOMALY": 160.2795, "EPHEMERIS_TYPE": 0, "CLASSIFICATION_TYPE": "U", "NORAD_CAT_ID": 30693, "ELEMENT_SET_NO": 999, "REV_AT_EPOCH": 96776, "BSTAR": 0.00036200292, "MEAN_MOTION_DOT": 6.38e-06, "MEAN_MOTION_DDOT": 0}, "tle": {"line1": "1 30693U 99025ARB 25335.49669355  .00000638  00000+0  36200-3 0  9991", "line2": "2 30693  98.6855 320.9544 0028757 199.7268 160.2795 14.13265176967763"}}, "geometry": {"type": "Point", "coordinates": [-13.997909584845036, -69.16859912565234]}}, {"type": "Feature", "properties": {"norad_id": 30694, "name": "FENGYUN 1C DEB", "group": "fengyun-1c-debris", "lat": 56.98744893879706, "lon": 135.9426413883788, "alt_km": 689.3357859399266, "timestamp": "2025-12-02T21:34:01.549220+00:00", "meta": {"OBJECT_NAME": "FENGYUN 1C DEB", "OBJECT_ID": "1999-025ARC", "EPOCH": "2025-12-01T20:46:41.540448", "MEAN_MOTION": 14.85887171, "ECCENTRICITY": 0.01327842, "INCLINATION": 99.0454, "RA_OF_ASC_NODE": 300.5762, "ARG_OF_PERICENTER": 329.668, "MEAN_ANOMALY": 29.6894, "EPHEMERIS_TYPE": 0, "CLASSIFICATION_TYPE": "U", "NORAD_CAT_ID": 30694, "ELEMENT_SET_NO": 999, "REV_AT_EPOCH": 99940, "BSTAR": 0.0020584377, "MEAN_MOTION_DOT": 0.00021027, "MEAN_MOTION_DDOT": 0}, "tle": {"line1": "1 30694U 99025ARC 25335.86575857  .00021027  00000+0  20584-2 0  9998", "line2": "2 30694  99.0454 300.5762 0132784 329.6680  29.6894 14.85887171999406"}}, "geometry": {"type": "Point", "coordinates": [135.9426413883788, 56.98744893879706]}}, {"type": "Feature", "properties": {"norad_id": 30696, "name": "FENGYUN 1C DEB", "group": "fengyun-1c-debris", "lat": 81.5877233809786, "lon": -60.366270370684404, "alt_km": 708.8962287709037, "timestamp": "2025-12-02T21:34:01.549231+00:00", "meta": {"OBJECT_NAME": "FENGYUN 1C DEB", "OBJECT_ID": "1999-025ARE", "EPOCH": "2025-12-02T03:07:45.827328", "MEAN_MOTION": 14.44654818, "ECCENTRICITY": 0.00899137, "INCLINATION": 98.3906, "RA_OF_ASC_NODE": 25.284, "ARG_OF_PERICENTER": 157.5475, "MEAN_ANOMALY": 259.7653, "EPHEMERIS_TYPE": 0, "CLASSIFICATION_TYPE": "U", "NORAD_CAT_ID": 30696, "ELEMENT_SET_NO": 999, "REV_AT_EPOCH": 98151, "BSTAR": 0.001036875, "MEAN_MOTION_DOT": 3.73e-05, "MEAN_MOTION_DDOT": 0}, "tle": {"line1": "1 30696U 99025ARE 25336.13039152  .00003730  00000+0  10369-2 0  9995", "line2": "2 30696  98.3906  25.2840 0089913 157.5475 259.7653 14.44654818981512"}}, "geometry": {"type": "Point", "coordinates": [-60.366270370684404, 81.5877233809786]}}, {"type": "Feature", "properties": {"norad_id": 30697, "name": "FENGYUN 1C DEB", "group": "fengyun-1c-debris", "lat": -64.0109565089613, "lon": -164.9851556600399, "alt_km": 801.3661547776637, "timestamp": "2025-12-02T21:34:01.549240+00:00", "meta": {"OBJECT_NAME": "FENGYUN 1C DEB", "OBJECT_ID": "1999-025ARF", "EPOCH": "2025-12-02T10:16:56.460000", "MEAN_MOTION": 14.13419891, "ECCENTRICITY": 0.0087717, "INCLINATION": 98.9085, "RA_OF_ASC_NODE": 33.3149, "ARG_OF_PERICENTER": 214.0225, "MEAN_ANOMALY": 159.6866, "EPHEMERIS_TYPE": 0, "CLASSIFICATION_TYPE": "U", "NORAD_CAT_ID": 30697, "ELEMENT_SET_NO": 999, "REV_AT_EPOCH": 96115, "BSTAR": 0.0019833, "MEAN_MOTION_DOT": 3.823e-05, "MEAN_MOTION_DDOT": 0}, "tle": {"line1": "1 30697U 99025ARF 25336.42843125  .00003823  00000+0  19833-2 0  9999", "line2": "2 30697  98.9085  33.3149 0087717 214.0225 159.6866 14.13419891961159"}}, "geometry": {"type": "Point", "coordinates": [-164.9851556600399, -64.0109565089613]}}, {"type": "Feature", "properties": {"norad_id": 30699, "name": "FENGYUN 1C DEB", "group": "fengyun-1c-debris", "lat": -79.7916426251645, "lon": 161.06250590482384, "alt_km": 741.2587710555426, "timestamp": "2025-12-02T21:34:01.549253+00:00", "meta": {"OBJECT_NAME": "FENGYUN 1C DEB", "OBJECT_ID": "1999-025ARH", "EPOCH": "2025-12-02T07:01:24.932352", "MEAN_MOTION": 14.46647919, "ECCENTRICITY": 0.0003688, "INCLINATION": 99.3116, "RA_OF_ASC_NODE": 94.7383, "ARG_OF_PERICENTER": 279.4254, "MEAN_ANOMALY": 80.6518, "EPHEMERIS_TYPE": 0, "CLASSIFICATION_TYPE": "U", "NORAD_CAT_ID": 30699, "ELEMENT_SET_NO": 999, "REV_AT_EPOCH": 97462, "BSTAR": 0.002914, "MEAN_MOTION_DOT": 0.00010486, "MEAN_MOTION_DDOT": 0}, "tle": {"line1": "1 30699U 99025ARH 25336.29264968  .00010486  00000+0  29140-2 0  9993", "line2": "2 30699  99.3116  94.7383 0003688 279.4254  80.6518 14.46647919974627"}}, "geometry": {"type": "Point", "coordinates": [161.06250590482384, -79.7916426251645]}}, {"type": "Feature", "properties": {"norad_id": 30700, "name": "FENGYUN 1C DEB", "group": "fengyun-1c-debris", "lat": 75.9907375959967, "lon": -137.45923946635233, "alt_km": 784.2943090497511, "timestamp": "2025-12-02T21:34:01.549263+00:00", "meta": {"OBJECT_NAME": "FENGYUN 1C DEB", "OBJECT_ID": "1999-025ARJ", "EPOCH": "2025-12-02T00:51:02.288160", "MEAN_MOTION": 14.23778899, "ECCENTRICITY": 0.00866184, "INCLINATION": 98.5429, "RA_OF_ASC_NODE": 4.6562, "ARG_OF_PERICENTER": 174.311, "MEAN_ANOMALY": 185.9074, "EPHEMERIS_TYPE": 0, "CLASSIFICATION_TYPE": "U", "NORAD_CAT_ID": 30700, "ELEMENT_SET_NO": 999, "REV_AT_EPOCH": 97417, "BSTAR": 0.00021760727, "MEAN_MOTION_DOT": 4.75e-06, "MEAN_MOTION_DDOT": 0}, "tle": {"line1": "1 30700U 99025ARJ 25336.03544315  .00000475  00000+0  21761-3 0  9994", "line2": "2 30700  98.5429   4.6562 0086618 174.3110 185.9074 14.23778899974178"}}, "geometry": {"type": "Point", "coordinates": [-137.45923946635233, 75.9907375959967]}}]}